{"fetched_at":"2026-07-15T06:35:32.501Z","source":"https://celestrak.org/NORAD/elements/gp.php?GROUP=oneweb&FORMAT=JSON","constellation":"oneweb","records":[{"OBJECT_NAME":"ONEWEB-0564","OBJECT_ID":"2023-029F","EPOCH":"2026-07-14T22:30:54.179712","CLASSIFICATION_TYPE":"U","MEAN_MOTION":13.20772508,"ECCENTRICITY":0.00017707,"INCLINATION":87.9177,"RA_OF_ASC_NODE":268.9217,"ARG_OF_PERICENTER":90.7504,"MEAN_ANOMALY":269.3832,"EPHEMERIS_TYPE":0,"NORAD_CAT_ID":55801,"ELEMENT_SET_NO":999,"REV_AT_EPOCH":16481,"BSTAR":0.00015489876,"MEAN_MOTION_DOT":7.6e-7,"MEAN_MOTION_DDOT":0},{"OBJECT_NAME":"ONEWEB-0638","OBJECT_ID":"2023-029G","EPOCH":"2026-07-14T19:05:28.893984","CLASSIFICATION_TYPE":"U","MEAN_MOTION":13.14504184,"ECCENTRICITY":0.00014494,"INCLINATION":87.8959,"RA_OF_ASC_NODE":284.2487,"ARG_OF_PERICENTER":102.6483,"MEAN_ANOMALY":257.4809,"EPHEMERIS_TYPE":0,"NORAD_CAT_ID":55802,"ELEMENT_SET_NO":999,"REV_AT_EPOCH":16302,"BSTAR":-0.000066444187,"MEAN_MOTION_DOT":-1.2e-7,"MEAN_MOTION_DDOT":0},{"OBJECT_NAME":"ONEWEB-0639","OBJECT_ID":"2023-029H","EPOCH":"2026-07-14T18:44:25.262880","CLASSIFICATION_TYPE":"U","MEAN_MOTION":13.19726342,"ECCENTRICITY":0.00026181,"INCLINATION":87.9185,"RA_OF_ASC_NODE":299.4812,"ARG_OF_PERICENTER":120.1802,"MEAN_ANOMALY":239.959,"EPHEMERIS_TYPE":0,"NORAD_CAT_ID":55803,"ELEMENT_SET_NO":999,"REV_AT_EPOCH":16254,"BSTAR":0.00010013162,"MEAN_MOTION_DOT":5.3e-7,"MEAN_MOTION_DDOT":0},{"OBJECT_NAME":"ONEWEB-0640","OBJECT_ID":"2023-029J","EPOCH":"2026-07-14T19:19:10.945920","CLASSIFICATION_TYPE":"U","MEAN_MOTION":13.145025,"ECCENTRICITY":0.00015788,"INCLINATION":87.8961,"RA_OF_ASC_NODE":284.2376,"ARG_OF_PERICENTER":117.6166,"MEAN_ANOMALY":242.5125,"EPHEMERIS_TYPE":0,"NORAD_CAT_ID":55804,"ELEMENT_SET_NO":999,"REV_AT_EPOCH":16304,"BSTAR":-0.00041334401,"MEAN_MOTION_DOT":-0.0000014,"MEAN_MOTION_DDOT":0},{"OBJECT_NAME":"ONEWEB-0641","OBJECT_ID":"2023-029K","EPOCH":"2026-07-14T20:26:46.675968","CLASSIFICATION_TYPE":"U","MEAN_MOTION":13.19726759,"ECCENTRICITY":0.00021492,"INCLINATION":87.9193,"RA_OF_ASC_NODE":299.4579,"ARG_OF_PERICENTER":104.7073,"MEAN_ANOMALY":255.4298,"EPHEMERIS_TYPE":0,"NORAD_CAT_ID":55805,"ELEMENT_SET_NO":999,"REV_AT_EPOCH":16256,"BSTAR":0.000056058216,"MEAN_MOTION_DOT":3.5e-7,"MEAN_MOTION_DDOT":0},{"OBJECT_NAME":"ONEWEB-0642","OBJECT_ID":"2023-029L","EPOCH":"2026-07-14T18:30:47.949984","CLASSIFICATION_TYPE":"U","MEAN_MOTION":13.19726366,"ECCENTRICITY":0.00026653,"INCLINATION":87.9187,"RA_OF_ASC_NODE":299.4841,"ARG_OF_PERICENTER":114.4123,"MEAN_ANOMALY":245.7289,"EPHEMERIS_TYPE":0,"NORAD_CAT_ID":55806,"ELEMENT_SET_NO":999,"REV_AT_EPOCH":16254,"BSTAR":0.00010446857,"MEAN_MOTION_DOT":5.5e-7,"MEAN_MOTION_DDOT":0},{"OBJECT_NAME":"ONEWEB-0643","OBJECT_ID":"2023-029M","EPOCH":"2026-07-14T18:35:48.427584","CLASSIFICATION_TYPE":"U","MEAN_MOTION":13.14502309,"ECCENTRICITY":0.00026574,"INCLINATION":87.8957,"RA_OF_ASC_NODE":284.231,"ARG_OF_PERICENTER":107.6374,"MEAN_ANOMALY":252.5046,"EPHEMERIS_TYPE":0,"NORAD_CAT_ID":55807,"ELEMENT_SET_NO":999,"REV_AT_EPOCH":16301,"BSTAR":0.00061430609,"MEAN_MOTION_DOT":0.00000241,"MEAN_MOTION_DDOT":0},{"OBJECT_NAME":"ONEWEB-0644","OBJECT_ID":"2023-029N","EPOCH":"2026-07-14T20:13:09.255936","CLASSIFICATION_TYPE":"U","MEAN_MOTION":13.19725772,"ECCENTRICITY":0.00023025,"INCLINATION":87.9184,"RA_OF_ASC_NODE":299.4707,"ARG_OF_PERICENTER":107.049,"MEAN_ANOMALY":253.0895,"EPHEMERIS_TYPE":0,"NORAD_CAT_ID":55808,"ELEMENT_SET_NO":999,"REV_AT_EPOCH":16255,"BSTAR":0.000092490357,"MEAN_MOTION_DOT":5e-7,"MEAN_MOTION_DDOT":0},{"OBJECT_NAME":"ONEWEB-0645","OBJECT_ID":"2023-029P","EPOCH":"2026-07-14T18:55:49.098144","CLASSIFICATION_TYPE":"U","MEAN_MOTION":13.19725789,"ECCENTRICITY":0.00020239,"INCLINATION":87.9184,"RA_OF_ASC_NODE":299.4788,"ARG_OF_PERICENTER":115.3898,"MEAN_ANOMALY":244.7444,"EPHEMERIS_TYPE":0,"NORAD_CAT_ID":55809,"ELEMENT_SET_NO":999,"REV_AT_EPOCH":16254,"BSTAR":0.000015420267,"MEAN_MOTION_DOT":1.9e-7,"MEAN_MOTION_DDOT":0},{"OBJECT_NAME":"ONEWEB-0646","OBJECT_ID":"2023-029Q","EPOCH":"2026-07-14T19:20:49.410816","CLASSIFICATION_TYPE":"U","MEAN_MOTION":13.19726847,"ECCENTRICITY":0.00022586,"INCLINATION":87.9186,"RA_OF_ASC_NODE":299.4754,"ARG_OF_PERICENTER":105.8251,"MEAN_ANOMALY":254.3131,"EPHEMERIS_TYPE":0,"NORAD_CAT_ID":55810,"ELEMENT_SET_NO":999,"REV_AT_EPOCH":16253,"BSTAR":0.000075562537,"MEAN_MOTION_DOT":4.3e-7,"MEAN_MOTION_DDOT":0},{"OBJECT_NAME":"ONEWEB-0648","OBJECT_ID":"2023-029R","EPOCH":"2026-07-14T17:50:07.406592","CLASSIFICATION_TYPE":"U","MEAN_MOTION":13.14503406,"ECCENTRICITY":0.00023685,"INCLINATION":87.8967,"RA_OF_ASC_NODE":284.2135,"ARG_OF_PERICENTER":123.0802,"MEAN_ANOMALY":237.0556,"EPHEMERIS_TYPE":0,"NORAD_CAT_ID":55811,"ELEMENT_SET_NO":999,"REV_AT_EPOCH":16301,"BSTAR":-0.00035062467,"MEAN_MOTION_DOT":-0.00000117,"MEAN_MOTION_DDOT":0},{"OBJECT_NAME":"ONEWEB-0649","OBJECT_ID":"2023-029S","EPOCH":"2026-07-14T19:57:12.480480","CLASSIFICATION_TYPE":"U","MEAN_MOTION":13.1972668,"ECCENTRICITY":0.00020439,"INCLINATION":87.9184,"RA_OF_ASC_NODE":299.4684,"ARG_OF_PERICENTER":108.7187,"MEAN_ANOMALY":251.4168,"EPHEMERIS_TYPE":0,"NORAD_CAT_ID":55812,"ELEMENT_SET_NO":999,"REV_AT_EPOCH":16257,"BSTAR":-0.00011897397,"MEAN_MOTION_DOT":-3.5e-7,"MEAN_MOTION_DDOT":0},{"OBJECT_NAME":"ONEWEB-0650","OBJECT_ID":"2023-029T","EPOCH":"2026-07-14T19:50:23.441280","CLASSIFICATION_TYPE":"U","MEAN_MOTION":13.19726251,"ECCENTRICITY":0.00024804,"INCLINATION":87.9183,"RA_OF_ASC_NODE":299.4716,"ARG_OF_PERICENTER":112.341,"MEAN_ANOMALY":247.7986,"EPHEMERIS_TYPE":0,"NORAD_CAT_ID":55813,"ELEMENT_SET_NO":999,"REV_AT_EPOCH":16254,"BSTAR":-0.00012907812,"MEAN_MOTION_DOT":-3.9e-7,"MEAN_MOTION_DDOT":0},{"OBJECT_NAME":"ONEWEB-0652","OBJECT_ID":"2023-029U","EPOCH":"2026-07-14T19:12:19.993824","CLASSIFICATION_TYPE":"U","MEAN_MOTION":13.14502383,"ECCENTRICITY":0.00020048,"INCLINATION":87.897,"RA_OF_ASC_NODE":284.2088,"ARG_OF_PERICENTER":95.4167,"MEAN_ANOMALY":264.7192,"EPHEMERIS_TYPE":0,"NORAD_CAT_ID":55814,"ELEMENT_SET_NO":999,"REV_AT_EPOCH":16299,"BSTAR":-0.00035321633,"MEAN_MOTION_DOT":-0.00000118,"MEAN_MOTION_DDOT":0},{"OBJECT_NAME":"ONEWEB-0653","OBJECT_ID":"2023-029V","EPOCH":"2026-07-14T18:49:29.774496","CLASSIFICATION_TYPE":"U","MEAN_MOTION":13.14501342,"ECCENTRICITY":0.00019722,"INCLINATION":87.8972,"RA_OF_ASC_NODE":284.2098,"ARG_OF_PERICENTER":100.5037,"MEAN_ANOMALY":259.6315,"EPHEMERIS_TYPE":0,"NORAD_CAT_ID":55815,"ELEMENT_SET_NO":999,"REV_AT_EPOCH":16302,"BSTAR":0.0002991623,"MEAN_MOTION_DOT":0.00000124,"MEAN_MOTION_DDOT":0},{"OBJECT_NAME":"ONEWEB-0654","OBJECT_ID":"2023-029W","EPOCH":"2026-07-14T16:53:02.033664","CLASSIFICATION_TYPE":"U","MEAN_MOTION":13.14502214,"ECCENTRICITY":0.00018017,"INCLINATION":87.8969,"RA_OF_ASC_NODE":284.2224,"ARG_OF_PERICENTER":91.1034,"MEAN_ANOMALY":269.0302,"EPHEMERIS_TYPE":0,"NORAD_CAT_ID":55816,"ELEMENT_SET_NO":999,"REV_AT_EPOCH":16303,"BSTAR":0.00050522996,"MEAN_MOTION_DOT":0.000002,"MEAN_MOTION_DDOT":0}]}
