ONEWEB-0564             
1 55801U 23029F   26195.93812708  .00000076  00000+0  15490-3 0  9990
2 55801  87.9177 268.9217 0001770  90.7504 269.3832 13.20772508164813
ONEWEB-0638             
1 55802U 23029G   26195.79547331 -.00000012  00000+0 -66444-4 0  9990
2 55802  87.8959 284.2487 0001449 102.6483 257.4809 13.14504184163023
ONEWEB-0639             
1 55803U 23029H   26195.78084795  .00000053  00000+0  10013-3 0  9993
2 55803  87.9185 299.4812 0002618 120.1802 239.9590 13.19726342162540
ONEWEB-0640             
1 55804U 23029J   26195.80498780 -.00000140  00000+0 -41334-3 0  9999
2 55804  87.8961 284.2376 0001578 117.6166 242.5125 13.14502500163040
ONEWEB-0641             
1 55805U 23029K   26195.85192912  .00000035  00000+0  56058-4 0  9994
2 55805  87.9193 299.4579 0002149 104.7073 255.4298 13.19726759162560
ONEWEB-0642             
1 55806U 23029L   26195.77138831  .00000055  00000+0  10447-3 0  9999
2 55806  87.9187 299.4841 0002665 114.4123 245.7289 13.19726366162547
ONEWEB-0643             
1 55807U 23029M   26195.77486606  .00000241  00000+0  61431-3 0  9992
2 55807  87.8957 284.2310 0002657 107.6374 252.5046 13.14502309163012
ONEWEB-0644             
1 55808U 23029N   26195.84246824  .00000050  00000+0  92490-4 0  9995
2 55808  87.9184 299.4707 0002302 107.0490 253.0895 13.19725772162556
ONEWEB-0645             
1 55809U 23029P   26195.78876271  .00000019  00000+0  15420-4 0  9997
2 55809  87.9184 299.4788 0002023 115.3898 244.7444 13.19725789162544
ONEWEB-0646             
1 55810U 23029Q   26195.80612744  .00000043  00000+0  75563-4 0  9996
2 55810  87.9186 299.4754 0002258 105.8251 254.3131 13.19726847162533
ONEWEB-0648             
1 55811U 23029R   26195.74314128 -.00000117  00000+0 -35062-3 0  9998
2 55811  87.8967 284.2135 0002368 123.0802 237.0556 13.14503406163013
ONEWEB-0649             
1 55812U 23029S   26195.83139445 -.00000035  00000+0 -11897-3 0  9995
2 55812  87.9184 299.4684 0002043 108.7187 251.4168 13.19726680162574
ONEWEB-0650             
1 55813U 23029T   26195.82666020 -.00000039  00000+0 -12908-3 0  9997
2 55813  87.9183 299.4716 0002480 112.3410 247.7986 13.19726251162542
ONEWEB-0652             
1 55814U 23029U   26195.80023141 -.00000118  00000+0 -35322-3 0  9990
2 55814  87.8970 284.2088 0002004  95.4167 264.7192 13.14502383162992
ONEWEB-0653             
1 55815U 23029V   26195.78437239  .00000124  00000+0  29916-3 0  9992
2 55815  87.8972 284.2098 0001972 100.5037 259.6315 13.14501342163022
ONEWEB-0654             
1 55816U 23029W   26195.70349576  .00000200  00000+0  50523-3 0  9994
2 55816  87.8969 284.2224 0001801  91.1034 269.0302 13.14502214163034
